ORBCOMM FM12 [+]        
1 25115U 97084D   17346.52288169  .00000027  00000-0  54751-4 0  9999
2 25115  45.0170 101.4359 0005738 116.4452 243.6986 14.38664754 45995
